start=new Date('2021-11-19T00:00:00.000Z').valueOf();
sats=[{"MEAN_MOTION":"15.06394300","RA_OF_ASC_NODE":"43.5056","REF_FRAME":"TEME","TLE_LINE1":"1 48459U 21040AH  21322.70986922 -.00000288  00000-0 -46173-6 0  9997","PERIOD":"95.593","SEMIMAJOR_AXIS":"6925.366","OBJECT_ID":"2021-040AH","INCLINATION":"53.0565","ELEMENT_SET_NO":"999","OBJECT_NAME":"STARLINK-2579","ECCENTRICITY":"0.00016070","BSTAR":"-0.00000046173000","CENTER_NAME":"EARTH","MEAN_MOTION_DDOT":"0.0000000000000","LAUNCH_DATE":"2021-05-09","EPHEMERIS_TYPE":"0","ARG_OF_PERICENTER":"87.1865","CLASSIFICATION_TYPE":"U","TLE_LINE2":"2 48459  53.0565  43.5056 0001607  87.1865 272.9308 15.06394300 29630","RCS_SIZE":"LARGE","MEAN_ELEMENT_THEORY":"SGP4","MEAN_ANOMALY":"272.9308","PERIAPSIS":"546.118","MEAN_MOTION_DOT":"-0.00000288","COUNTRY_CODE":"US","SITE":"AFETR","TIME_SYSTEM":"UTC","FILE":"3218669","OBJECT_TYPE":"PAYLOAD","REV_AT_EPOCH":"2963","EPOCH":"2021-11-18T17:02:12.700608","GP_ID":"190041191","NORAD_CAT_ID":"48459","DECAY_DATE":null,"APOAPSIS":"548.344"},{"RA_OF_ASC_NODE":"43.5650","MEAN_MOTION":"15.06388649","SEMIMAJOR_AXIS":"6925.383","PERIOD":"95.593","TLE_LINE1":"1 48460U 21040AJ  21322.69607308 -.00000351  00000-0 -47041-5 0  9990","REF_FRAME":"TEME","INCLINATION":"53.0569","OBJECT_ID":"2021-040AJ","ELEMENT_SET_NO":"999","BSTAR":"-0.00000470410000","ECCENTRICITY":"0.00012560","OBJECT_NAME":"STARLINK-2582","MEAN_MOTION_DDOT":"0.0000000000000","CENTER_NAME":"EARTH","LAUNCH_DATE":"2021-05-09","EPHEMERIS_TYPE":"0","ARG_OF_PERICENTER":"87.1204","CLASSIFICATION_TYPE":"U","RCS_SIZE":"LARGE","TLE_LINE2":"2 48460  53.0569  43.5650 0001256  87.1204 272.9929 15.06388649 30138","MEAN_ELEMENT_THEORY":"SGP4","PERIAPSIS":"546.379","MEAN_ANOMALY":"272.9929","MEAN_MOTION_DOT":"-0.00000351","COUNTRY_CODE":"US","SITE":"AFETR","TIME_SYSTEM":"UTC","OBJECT_TYPE":"PAYLOAD","FILE":"3218669","REV_AT_EPOCH":"3013","EPOCH":"2021-11-18T16:42:20.714112","NORAD_CAT_ID":"48460","GP_ID":"190040445","DECAY_DATE":null,"APOAPSIS":"548.118"},{"COUNTRY_CODE":"US","MEAN_MOTION_DOT":"-0.00000301","OBJECT_TYPE":"PAYLOAD","FILE":"3218669","SITE":"AFETR","TIME_SYSTEM":"UTC","REV_AT_EPOCH":"2961","NORAD_CAT_ID":"48461","GP_ID":"190040570","DECAY_DATE":null,"APOAPSIS":"548.057","EPOCH":"2021-11-18T13:52:29.163648","OBJECT_ID":"2021-040AK","INCLINATION":"53.0561","ELEMENT_SET_NO":"999","MEAN_MOTION":"15.06397079","RA_OF_ASC_NODE":"44.0903","SEMIMAJOR_AXIS":"6925.358","TLE_LINE1":"1 48461U 21040AK  21322.57811532 -.00000301  00000-0 -13443-5 0  9998","REF_FRAME":"TEME","PERIOD":"95.592","LAUNCH_DATE":"2021-05-09","EPHEMERIS_TYPE":"0","ARG_OF_PERICENTER":"91.9425","BSTAR":"-0.00000134430000","OBJECT_NAME":"STARLINK-2693","ECCENTRICITY":"0.00012050","MEAN_MOTION_DDOT":"0.0000000000000","CENTER_NAME":"EARTH","RCS_SIZE":"LARGE","TLE_LINE2":"2 48461  53.0561  44.0903 0001205  91.9425 268.1702 15.06397079 29614","CLASSIFICATION_TYPE":"U","MEAN_ANOMALY":"268.1702","PERIAPSIS":"546.388","MEAN_ELEMENT_THEORY":"SGP4"},{"CLASSIFICATION_TYPE":"U","TLE_LINE2":"2 48462  53.0537  48.7024 0001539  61.6397 298.4746 15.06393729 29550","RCS_SIZE":"LARGE","MEAN_ELEMENT_THEORY":"SGP4","PERIAPSIS":"546.167","MEAN_ANOMALY":"298.4746","MEAN_MOTION":"15.06393729","RA_OF_ASC_NODE":"48.7024","REF_FRAME":"TEME","TLE_LINE1":"1 48462U 21040AL  21322.66701726 -.00001156  00000-0 -58744-4 0  9993","PERIOD":"95.593","SEMIMAJOR_AXIS":"6925.368","INCLINATION":"53.0537","OBJECT_ID":"2021-040AL","ELEMENT_SET_NO":"999","ECCENTRICITY":"0.00015390","OBJECT_NAME":"STARLINK-2683","BSTAR":"-0.00005874400000","CENTER_NAME":"EARTH","MEAN_MOTION_DDOT":"0.0000000000000","LAUNCH_DATE":"2021-05-09","EPHEMERIS_TYPE":"0","ARG_OF_PERICENTER":"61.6397","REV_AT_EPOCH":"2955","EPOCH":"2021-11-18T16:00:30.291264","GP_ID":"190040636","NORAD_CAT_ID":"48462","DECAY_DATE":null,"APOAPSIS":"548.299","MEAN_MOTION_DOT":"-0.00001156","COUNTRY_CODE":"US","SITE":"AFETR","TIME_SYSTEM":"UTC","FILE":"3218669","OBJECT_TYPE":"PAYLOAD"},{"OBJECT_TYPE":"PAYLOAD","FILE":"3218669","SITE":"AFETR","TIME_SYSTEM":"UTC","COUNTRY_CODE":"US","MEAN_MOTION_DOT":"0.00000354","NORAD_CAT_ID":"48463","GP_ID":"190041010","DECAY_DATE":null,"APOAPSIS":"548.046","EPOCH":"2021-11-18T15:12:43.916832","REV_AT_EPOCH":"2955","EPHEMERIS_TYPE":"0","LAUNCH_DATE":"2021-05-09","ARG_OF_PERICENTER":"73.8273","BSTAR":"0.00004267100000","ECCENTRICITY":"0.00012050","OBJECT_NAME":"STARLINK-2689","MEAN_MOTION_DDOT":"0.0000000000000","CENTER_NAME":"EARTH","INCLINATION":"53.0573","OBJECT_ID":"2021-040AM","ELEMENT_SET_NO":"999","MEAN_MOTION":"15.06400821","RA_OF_ASC_NODE":"48.8511","SEMIMAJOR_AXIS":"6925.346","REF_FRAME":"TEME","TLE_LINE1":"1 48463U 21040AM  21322.63384163  .00000354  00000-0  42671-4 0  9992","PERIOD":"95.592","PERIAPSIS":"546.377","MEAN_ANOMALY":"286.2848","MEAN_ELEMENT_THEORY":"SGP4","RCS_SIZE":"LARGE","TLE_LINE2":"2 48463  53.0573  48.8511 0001205  73.8273 286.2848 15.06400821 29551","CLASSIFICATION_TYPE":"U"},{"ARG_OF_PERICENTER":"71.3073","EPHEMERIS_TYPE":"0","LAUNCH_DATE":"2021-05-09","MEAN_MOTION_DDOT":"0.0000000000000","CENTER_NAME":"EARTH","BSTAR":"0.00001529000000","OBJECT_NAME":"STARLINK-2686","ECCENTRICITY":"0.00014990","ELEMENT_SET_NO":"999","INCLINATION":"53.0572","OBJECT_ID":"2021-040AN","SEMIMAJOR_AXIS":"6925.361","PERIOD":"95.592","TLE_LINE1":"1 48464U 21040AN  21322.67902146 -.00000054  00000-0  15290-4 0  9999","REF_FRAME":"TEME","MEAN_MOTION":"15.06395993","RA_OF_ASC_NODE":"48.6473","PERIAPSIS":"546.188","MEAN_ANOMALY":"288.8079","MEAN_ELEMENT_THEORY":"SGP4","RCS_SIZE":"LARGE","TLE_LINE2":"2 48464  53.0572  48.6473 0001499  71.3073 288.8079 15.06395993 29559","CLASSIFICATION_TYPE":"U","OBJECT_TYPE":"PAYLOAD","FILE":"3218669","TIME_SYSTEM":"UTC","SITE":"AFETR","COUNTRY_CODE":"US","MEAN_MOTION_DOT":"-0.00000054","APOAPSIS":"548.264","DECAY_DATE":null,"NORAD_CAT_ID":"48464","GP_ID":"190040760","EPOCH":"2021-11-18T16:17:47.454144","REV_AT_EPOCH":"2955"},{"EPOCH":"2021-11-18T07:00:28.460448","GP_ID":"190012357","NORAD_CAT_ID":"48465","DECAY_DATE":null,"APOAPSIS":"548.134","REV_AT_EPOCH":"2950","SITE":"AFETR","TIME_SYSTEM":"UTC","FILE":"3218461","OBJECT_TYPE":"PAYLOAD","MEAN_MOTION_DOT":"0.00000069","COUNTRY_CODE":"US","MEAN_ELEMENT_THEORY":"SGP4","MEAN_ANOMALY":"292.7693","PERIAPSIS":"546.300","CLASSIFICATION_TYPE":"U","TLE_LINE2":"2 48465  53.0584  50.3734 0001324  67.3436 292.7693 15.06399003 29505","RCS_SIZE":"LARGE","ECCENTRICITY":"0.00013240","OBJECT_NAME":"STARLINK-2681","BSTAR":"0.00002353300000","CENTER_NAME":"EARTH","MEAN_MOTION_DDOT":"0.0000000000000","LAUNCH_DATE":"2021-05-09","EPHEMERIS_TYPE":"0","ARG_OF_PERICENTER":"67.3436","MEAN_MOTION":"15.06399003","RA_OF_ASC_NODE":"50.3734","REF_FRAME":"TEME","TLE_LINE1":"1 48465U 21040AP  21322.29199607  .00000069  00000-0  23533-4 0  9992","PERIOD":"95.592","SEMIMAJOR_AXIS":"6925.352","INCLINATION":"53.0584","OBJECT_ID":"2021-040AP","ELEMENT_SET_NO":"999"},{"ELEMENT_SET_NO":"999","OBJECT_ID":"2021-040AQ","INCLINATION":"53.0585","SEMIMAJOR_AXIS":"6925.351","TLE_LINE1":"1 48466U 21040AQ  21322.60898343 -.00000133  00000-0  99395-5 0  9994","REF_FRAME":"TEME","PERIOD":"95.592","RA_OF_ASC_NODE":"48.9612","MEAN_MOTION":"15.06399261","ARG_OF_PERICENTER":"83.2001","LAUNCH_DATE":"2021-05-09","EPHEMERIS_TYPE":"0","MEAN_MOTION_DDOT":"0.0000000000000","CENTER_NAME":"EARTH","BSTAR":"0.00000993950000","ECCENTRICITY":"0.00011630","OBJECT_NAME":"STARLINK-2687","RCS_SIZE":"LARGE","TLE_LINE2":"2 48466  53.0585  48.9612 0001163  83.2001 276.9121 15.06399261 29552","CLASSIFICATION_TYPE":"U","MEAN_ANOMALY":"276.9121","PERIAPSIS":"546.410","MEAN_ELEMENT_THEORY":"SGP4","COUNTRY_CODE":"US","MEAN_MOTION_DOT":"-0.00000133","OBJECT_TYPE":"PAYLOAD","FILE":"3218669","TIME_SYSTEM":"UTC","SITE":"AFETR","REV_AT_EPOCH":"2955","APOAPSIS":"548.021","DECAY_DATE":null,"NORAD_CAT_ID":"48466","GP_ID":"190040321","EPOCH":"2021-11-18T14:36:56.168352"},{"TLE_LINE2":"2 48467  53.0574  48.8447 0001037  75.9940 284.1164 15.06398997 29559","RCS_SIZE":"LARGE","CLASSIFICATION_TYPE":"U","MEAN_ANOMALY":"284.1164","PERIAPSIS":"546.498","MEAN_ELEMENT_THEORY":"SGP4","ELEMENT_SET_NO":"999","OBJECT_ID":"2021-040AR","INCLINATION":"53.0574","TLE_LINE1":"1 48467U 21040AR  21322.63479044 -.00001176  00000-0 -60104-4 0  9995","PERIOD":"95.592","REF_FRAME":"TEME","SEMIMAJOR_AXIS":"6925.352","RA_OF_ASC_NODE":"48.8447","MEAN_MOTION":"15.06398997","ARG_OF_PERICENTER":"75.9940","LAUNCH_DATE":"2021-05-09","EPHEMERIS_TYPE":"0","CENTER_NAME":"EARTH","MEAN_MOTION_DDOT":"0.0000000000000","ECCENTRICITY":"0.00010370","OBJECT_NAME":"STARLINK-2659","BSTAR":"-0.00006010400000","REV_AT_EPOCH":"2955","DECAY_DATE":null,"APOAPSIS":"547.935","GP_ID":"190041192","NORAD_CAT_ID":"48467","EPOCH":"2021-11-18T15:14:05.894016","COUNTRY_CODE":"US","MEAN_MOTION_DOT":"-0.00001176","FILE":"3218669","OBJECT_TYPE":"PAYLOAD","TIME_SYSTEM":"UTC","SITE":"AFETR"},{"MEAN_ANOMALY":"289.1914","PERIAPSIS":"546.233","MEAN_ELEMENT_THEORY":"SGP4","RCS_SIZE":"LARGE","TLE_LINE2":"2 48468  53.0566  48.3229 0001415  70.9228 289.1914 15.06400105 29573","CLASSIFICATION_TYPE":"U","EPHEMERIS_TYPE":"0","LAUNCH_DATE":"2021-05-09","ARG_OF_PERICENTER":"70.9228","BSTAR":"0.00004111300000","ECCENTRICITY":"0.00014150","OBJECT_NAME":"STARLINK-2685","MEAN_MOTION_DDOT":"0.0000000000000","CENTER_NAME":"EARTH","OBJECT_ID":"2021-040AS","INCLINATION":"53.0566","ELEMENT_SET_NO":"999","RA_OF_ASC_NODE":"48.3229","MEAN_MOTION":"15.06400105","SEMIMAJOR_AXIS":"6925.348","REF_FRAME":"TEME","TLE_LINE1":"1 48468U 21040AS  21322.74905091  .00000331  00000-0  41113-4 0  9993","PERIOD":"95.592","NORAD_CAT_ID":"48468","GP_ID":"190040446","APOAPSIS":"548.193","DECAY_DATE":null,"EPOCH":"2021-11-18T17:58:37.998624","REV_AT_EPOCH":"2957","OBJECT_TYPE":"PAYLOAD","FILE":"3218669","SITE":"AFETR","TIME_SYSTEM":"UTC","COUNTRY_CODE":"US","MEAN_MOTION_DOT":"0.00000331"}];
